[{"OBJECT_NAME":"IONOSFERA-M 3","OBJECT_ID":"2025-155A","EPOCH":"2026-03-29T03:25:58.177344","MEAN_MOTION":14.21471193,"ECCENTRICITY":0.0002481,"INCLINATION":98.5953,"RA_OF_ASC_NODE":52.0966,"ARG_OF_PERICENTER":88.0521,"MEAN_ANOMALY":272.0941,"EPHEMERIS_TYPE":0,"CLASSIFICATION_TYPE":"U","NORAD_CAT_ID":64876,"ELEMENT_SET_NO":999,"REV_AT_EPOCH":3503,"BSTAR":5.8238e-5,"MEAN_MOTION_DOT":8.5e-7,"MEAN_MOTION_DDOT":0},{"OBJECT_NAME":"IONOSFERA-M 4","OBJECT_ID":"2025-155B","EPOCH":"2026-03-29T04:16:18.189120","MEAN_MOTION":14.21473114,"ECCENTRICITY":0.000187,"INCLINATION":98.5955,"RA_OF_ASC_NODE":52.0489,"ARG_OF_PERICENTER":82.7921,"MEAN_ANOMALY":277.3469,"EPHEMERIS_TYPE":0,"CLASSIFICATION_TYPE":"U","NORAD_CAT_ID":64877,"ELEMENT_SET_NO":999,"REV_AT_EPOCH":3503,"BSTAR":6.4394e-5,"MEAN_MOTION_DOT":9.8e-7,"MEAN_MOTION_DDOT":0},{"OBJECT_NAME":"MICROCARB","OBJECT_ID":"2025-156A","EPOCH":"2026-03-29T03:46:56.149248","MEAN_MOTION":14.72232012,"ECCENTRICITY":0.0016856,"INCLINATION":97.986,"RA_OF_ASC_NODE":166.7197,"ARG_OF_PERICENTER":163.7294,"MEAN_ANOMALY":196.4458,"EPHEMERIS_TYPE":0,"CLASSIFICATION_TYPE":"U","NORAD_CAT_ID":64899,"ELEMENT_SET_NO":999,"REV_AT_EPOCH":3619,"BSTAR":0.00012367,"MEAN_MOTION_DOT":7.32e-6,"MEAN_MOTION_DDOT":0},{"OBJECT_NAME":"CO3D 3","OBJECT_ID":"2025-156B","EPOCH":"2026-03-24T16:06:35.440992","MEAN_MOTION":15.1995111,"ECCENTRICITY":0.0180032,"INCLINATION":98.029,"RA_OF_ASC_NODE":163.8008,"ARG_OF_PERICENTER":158.7023,"MEAN_ANOMALY":202.1829,"EPHEMERIS_TYPE":0,"CLASSIFICATION_TYPE":"U","NORAD_CAT_ID":64900,"ELEMENT_SET_NO":999,"REV_AT_EPOCH":3669,"BSTAR":0.00048501138,"MEAN_MOTION_DOT":0.00016115,"MEAN_MOTION_DDOT":0},{"OBJECT_NAME":"CO3D 4","OBJECT_ID":"2025-156C","EPOCH":"2026-03-28T03:50:18.287232","MEAN_MOTION":15.20217324,"ECCENTRICITY":0.00012278,"INCLINATION":97.4324,"RA_OF_ASC_NODE":167.0161,"ARG_OF_PERICENTER":158.0019,"MEAN_ANOMALY":202.1269,"EPHEMERIS_TYPE":0,"CLASSIFICATION_TYPE":"U","NORAD_CAT_ID":64901,"ELEMENT_SET_NO":999,"REV_AT_EPOCH":3722,"BSTAR":0.00026651089,"MEAN_MOTION_DOT":5.709e-5,"MEAN_MOTION_DDOT":0},{"OBJECT_NAME":"CO3D 2","OBJECT_ID":"2025-156D","EPOCH":"2026-03-29T04:18:50.970240","MEAN_MOTION":15.2021329,"ECCENTRICITY":0.000148,"INCLINATION":97.4327,"RA_OF_ASC_NODE":167.9206,"ARG_OF_PERICENTER":86.1037,"MEAN_ANOMALY":274.0367,"EPHEMERIS_TYPE":0,"CLASSIFICATION_TYPE":"U","NORAD_CAT_ID":64902,"ELEMENT_SET_NO":999,"REV_AT_EPOCH":3737,"BSTAR":0.00031704,"MEAN_MOTION_DOT":6.804e-5,"MEAN_MOTION_DDOT":0},{"OBJECT_NAME":"CO3D 1","OBJECT_ID":"2025-156E","EPOCH":"2026-03-29T04:19:04.396800","MEAN_MOTION":15.20202088,"ECCENTRICITY":0.0001523,"INCLINATION":97.4326,"RA_OF_ASC_NODE":167.9202,"ARG_OF_PERICENTER":92.9738,"MEAN_ANOMALY":267.1671,"EPHEMERIS_TYPE":0,"CLASSIFICATION_TYPE":"U","NORAD_CAT_ID":64903,"ELEMENT_SET_NO":999,"REV_AT_EPOCH":3737,"BSTAR":0.00031307,"MEAN_MOTION_DOT":6.716e-5,"MEAN_MOTION_DDOT":0},{"OBJECT_NAME":"SENTINEL-6B","OBJECT_ID":"2025-264A","EPOCH":"2026-03-28T23:31:07.575456","MEAN_MOTION":12.80930123,"ECCENTRICITY":0.0007888,"INCLINATION":66.0411,"RA_OF_ASC_NODE":301.7731,"ARG_OF_PERICENTER":270.4172,"MEAN_ANOMALY":89.5939,"EPHEMERIS_TYPE":0,"CLASSIFICATION_TYPE":"U","NORAD_CAT_ID":66514,"ELEMENT_SET_NO":999,"REV_AT_EPOCH":1689,"BSTAR":0.00012142,"MEAN_MOTION_DOT":-3.3e-7,"MEAN_MOTION_DDOT":0},{"OBJECT_NAME":"CSG-3","OBJECT_ID":"2026-001A","EPOCH":"2026-03-29T04:46:37.020576","MEAN_MOTION":14.82148891,"ECCENTRICITY":0.0001431,"INCLINATION":97.8883,"RA_OF_ASC_NODE":272.9556,"ARG_OF_PERICENTER":86.9683,"MEAN_ANOMALY":273.1694,"EPHEMERIS_TYPE":0,"CLASSIFICATION_TYPE":"U","NORAD_CAT_ID":67304,"ELEMENT_SET_NO":999,"REV_AT_EPOCH":1261,"BSTAR":6.4656e-5,"MEAN_MOTION_DOT":4.62e-6,"MEAN_MOTION_DDOT":0}]
