IONOSFERA-M 3           
1 64876U 25155A   26088.14303446  .00000085  00000+0  58238-4 0  9990
2 64876  98.5953  52.0966 0002481  88.0521 272.0941 14.21471193 35038
IONOSFERA-M 4           
1 64877U 25155B   26088.17798830  .00000098  00000+0  64394-4 0  9993
2 64877  98.5955  52.0489 0001870  82.7921 277.3469 14.21473114 35035
MICROCARB               
1 64899U 25156A   26088.15759432  .00000732  00000+0  12367-3 0  9998
2 64899  97.9860 166.7197 0016856 163.7294 196.4458 14.72232012 36192
CO3D 3                  
1 64900U 25156B   26083.67124353  .00016115  00000+0  48501-3 0  9992
2 64900  98.0290 163.8008 0180032 158.7023 202.1829 15.19951110 36696
CO3D 4                  
1 64901U 25156C   26087.15993388  .00005709  00000+0  26651-3 0  9991
2 64901  97.4324 167.0161 0001227 158.0019 202.1269 15.20217324 37222
CO3D 2                  
1 64902U 25156D   26088.17975660  .00006804  00000+0  31704-3 0  9990
2 64902  97.4327 167.9206 0001480  86.1037 274.0367 15.20213290 37378
CO3D 1                  
1 64903U 25156E   26088.17991200  .00006716  00000+0  31307-3 0  9990
2 64903  97.4326 167.9202 0001523  92.9738 267.1671 15.20202088 37379
SENTINEL-6B             
1 66514U 25264A   26087.97994879 -.00000033  00000+0  12142-3 0  9995
2 66514  66.0411 301.7731 0007888 270.4172  89.5939 12.80930123 16894
CSG-3                   
1 67304U 26001A   26088.19903959  .00000462  00000+0  64656-4 0  9990
2 67304  97.8883 272.9556 0001431  86.9683 273.1694 14.82148891 12618
